NORAD_CAT_ID,OBJECT_NAME,OBJECT_TYPE,EPOCH,MEAN_MOTION,ECCENTRICITY,INCLINATION,RA_OF_ASC_NODE,ARG_OF_PERICENTER,MEAN_ANOMALY,BSTAR,MEAN_MOTION_DOT,MEAN_MOTION_DDOT,TLE_LINE0,TLE_LINE1,TLE_LINE2,SEMIMAJOR_AXIS,PERIOD,APOGEE,PERIGEE,DECAYED
55924.0,STARLINK-5849,PAYLOAD,2023-05-19 19:16:36,15.69911171,0.0002897,69.999,3.8461,264.6164,95.4701,2.1757e-05,2.403e-05,0.0,0 STARLINK-5849,1 55924U 23037L   23139.80320417  .00002403  00000-0  21757-4 0  9998,2 55924  69.9990   3.8461 0002897 264.6164  95.4701 15.69911171 10082,6737.288,91.725,361.105,357.201,0.0
55924.0,STARLINK-5849,PAYLOAD,2023-05-20 01:23:35,15.69942614,0.0003479,69.998,3.1327,265.779,94.3008,-6.5979e-06,-1.007e-05,0.0,0 STARLINK-5849,1 55924U 23037L   23140.05805306 -.00001007  00000-0 -65979-5 0  9998,2 55924  69.9980   3.1327 0003479 265.7790  94.3008 15.69942614 10465,6737.198,91.723,361.407,356.719,0.0
55924.0,STARLINK-5849,PAYLOAD,2023-05-20 16:41:06,15.69937525,0.0003314,70.0002,1.3425,276.6038,83.4781,1.9807e-05,2.171e-05,0.0,0 STARLINK-5849,1 55924U 23037L   23140.69521989  .00002171  00000-0  19807-4 0  9999,2 55924  70.0002   1.3425 0003314 276.6038  83.4781 15.69937525 10569,6737.213,91.723,361.31,356.845,0.0
55924.0,STARLINK-5849,PAYLOAD,2023-05-20 21:16:22,15.69927332,0.0003634,69.9986,0.8023,270.4935,89.5844,7.4175e-06,6.79e-06,0.0,0 STARLINK-5849,1 55924U 23037L   23140.88637547  .00000679  00000-0  74175-5 0  9999,2 55924  69.9986   0.8023 0003634 270.4935  89.5844 15.69927332 10256,6737.242,91.724,361.555,356.659,0.0
55924.0,STARLINK-5849,PAYLOAD,2023-05-21 00:19:55,15.69894964,0.0003056,69.9989,0.4421,269.6231,90.4615,-2.9415e-05,-3.743e-05,0.0,0 STARLINK-5849,1 55924U 23037L   23141.01383603 -.00003743  00000-0 -29415-4 0  9999,2 55924  69.9989   0.4421 0003056 269.6231  90.4615 15.69894964 10615,6737.335,91.726,361.258,357.141,0.0
55924.0,STARLINK-5849,PAYLOAD,2023-05-21 14:05:40,15.69916596,0.0003486,69.9982,358.8311,263.2201,96.8598,-1.2265e-05,-1.687e-05,0.0,0 STARLINK-5849,1 55924U 23037L   23141.58727452 -.00001687  00000-0 -12265-4 0  9995,2 55924  69.9982 358.8311 0003486 263.2201  96.8598 15.69916596 10368,6737.273,91.725,361.486,356.789,0.0
55924.0,STARLINK-5849,PAYLOAD,2023-05-21 15:37:25,15.6992389,0.0003283,69.9977,358.6531,255.138,104.9452,9.3592e-08,-2.01e-06,0.0,0 STARLINK-5849,1 55924U 23037L   23141.65098417 -.00000201  00000-0  93592-7 0  9990,2 55924  69.9977 358.6531 0003283 255.1380 104.9452 15.69923890 10711,6737.252,91.724,361.329,356.905,0.0
55924.0,STARLINK-5849,PAYLOAD,2023-05-21 18:40:54,15.69938237,0.0003816,69.9979,358.2939,265.9266,94.1494,1.4046e-05,1.477e-05,0.0,0 STARLINK-5849,1 55924U 23037L   23141.77840610  .00001477  00000-0  14046-4 0  9992,2 55924  69.9979 358.2939 0003816 265.9266  94.1494 15.69938237 10396,6737.211,91.723,361.647,356.505,0.0
55924.0,STARLINK-5849,PAYLOAD,2023-05-21 23:16:09,15.69938925,0.0003755,69.9979,357.7564,266.5521,93.5245,1.4985e-05,1.59e-05,0.0,0 STARLINK-5849,1 55924U 23037L   23141.96955481  .00001590  00000-0  14985-4 0  9994,2 55924  69.9979 357.7564 0003755 266.5521  93.5245 15.69938925 10769,6737.209,91.723,361.604,356.544,0.0
55924.0,STARLINK-5849,PAYLOAD,2023-05-22 16:05:26,15.69924043,0.0003678,69.9971,355.7863,266.7184,93.3591,1.0259e-05,1.021e-05,0.0,0 STARLINK-5849,1 55924U 23037L   23142.67044597  .00001021  00000-0  10259-4 0  9999,2 55924  69.9971 355.7863 0003678 266.7184  93.3591 15.69924043 10872,6737.251,91.724,361.594,356.638,0.0
55924.0,STARLINK-5849,PAYLOAD,2023-05-22 20:40:42,15.69920991,0.0003815,69.9972,355.2493,267.5922,92.4836,6.5994e-06,5.8e-06,0.0,0 STARLINK-5849,1 55924U 23037L   23142.86159976  .00000580  00000-0  65994-5 0  9994,2 55924  69.9972 355.2493 0003815 267.5922  92.4836 15.69920991 10565,6737.26,91.724,361.695,356.555,0.0
55924.0,STARLINK-5849,PAYLOAD,2023-05-23 16:33:27,15.70011782,0.0004239,69.9972,352.9199,265.9644,94.1068,-0.0001441,-0.00017571,0.0,0 STARLINK-5849,1 55924U 23037L   23143.68990108 -.00017571  00000-0 -14410-3 0  9990,2 55924  69.9972 352.9199 0004239 265.9644  94.1068 15.70011782 11036,6737.0,91.719,361.721,356.009,0.0
55924.0,STARLINK-5849,PAYLOAD,2023-05-24 15:29:46,15.69917393,0.0003814,69.9974,350.2326,269.3726,90.7032,4.1712e-06,2.88e-06,0.0,0 STARLINK-5849,1 55924U 23037L   23144.64567141  .00000288  00000-0  41712-5 0  9996,2 55924  69.9974 350.2326 0003814 269.3726  90.7032 15.69917393 11188,6737.27,91.725,361.705,356.566,0.0
55924.0,STARLINK-5849,PAYLOAD,2023-05-25 14:26:02,15.69925504,0.0003617,69.9969,347.5442,263.4914,96.5869,7.102e-06,6.41e-06,0.0,0 STARLINK-5849,1 55924U 23037L   23145.60141670  .00000641  00000-0  71020-5 0  9996,2 55924  69.9969 347.5442 0003617 263.4914  96.5869 15.69925504 10998,6737.247,91.724,361.549,356.675,0.0
55924.0,STARLINK-5849,PAYLOAD,2023-05-25 15:57:47,15.69925931,0.0003612,69.997,347.365,263.312,96.7665,7.5486e-06,6.95e-06,0.0,0 STARLINK-5849,1 55924U 23037L   23145.66513294  .00000695  00000-0  75486-5 0  9996,2 55924  69.9970 347.3650 0003612 263.3120  96.7665 15.69925931 11342,6737.246,91.724,361.544,356.677,0.0
55924.0,STARLINK-5849,PAYLOAD,2023-05-25 22:04:48,15.69923802,0.0003648,69.9971,346.6486,263.7472,96.3308,4.3467e-06,3.1e-06,0.0,0 STARLINK-5849,1 55924U 23037L   23145.92000156  .00000310  00000-0  43467-5 0  9991,2 55924  69.9971 346.6486 0003648 263.7472  96.3308 15.69923802 11047,6737.252,91.724,361.575,356.659,0.0
55924.0,STARLINK-5849,PAYLOAD,2023-05-25 23:36:33,15.69922186,0.0003673,69.997,346.47,264.5303,95.5474,2.0526e-06,3.4e-07,0.0,0 STARLINK-5849,1 55924U 23037L   23145.98371983  .00000034  00000-0  20526-5 0  9990,2 55924  69.9970 346.4700 0003673 264.5303  95.5474 15.69922186 11053,6737.257,91.724,361.596,356.647,0.0
55924.0,STARLINK-5849,PAYLOAD,2023-05-26 16:25:50,15.69919646,0.000372,69.9967,344.4992,264.8802,95.1969,-1.3976e-06,-3.81e-06,0.0,0 STARLINK-5849,1 55924U 23037L   23146.68460747 -.00000381  00000-0 -13976-5 0  9993,2 55924  69.9967 344.4992 0003720 264.8802  95.1969 15.69919646 11502,6737.264,91.724,361.635,356.623,0.0
55924.0,STARLINK-5849,PAYLOAD,2023-05-26 21:01:05,15.69923162,0.0003658,69.9966,343.9617,264.3231,95.7548,2.836e-06,1.28e-06,0.0,0 STARLINK-5849,1 55924U 23037L   23146.87575456  .00000128  00000-0  28360-5 0  9998,2 55924  69.9966 343.9617 0003658 264.3231  95.7548 15.69923162 11192,6737.254,91.724,361.583,356.654,0.0
55924.0,STARLINK-5849,PAYLOAD,2023-05-27 06:11:35,15.69926031,0.0003618,69.9968,342.8872,265.0192,95.0591,7.6221e-06,7.04e-06,0.0,0 STARLINK-5849,1 55924U 23037L   23147.25805168  .00000704  00000-0  76221-5 0  9996,2 55924  69.9968 342.8872 0003618 265.0192  95.0591 15.69926031 11598,6737.246,91.724,361.548,356.673,0.0
55924.0,STARLINK-5849,PAYLOAD,2023-05-27 21:29:07,15.69912371,0.0003156,69.9974,341.0967,258.7818,101.3023,3.844e-05,4.409e-05,0.0,0 STARLINK-5849,1 55924U 23037L   23147.89522086  .00004409  00000-0  38440-4 0  9997,2 55924  69.9974 341.0967 0003156 258.7818 101.3023 15.69912371 11359,6737.285,91.725,361.276,357.023,0.0
55924.0,STARLINK-5849,PAYLOAD,2023-05-27 23:00:52,15.69926876,0.0003241,69.9975,340.917,259.9772,100.1058,3.0077e-06,1.49e-06,0.0,0 STARLINK-5849,1 55924U 23037L   23147.95893679  .00000149  00000-0  30077-5 0  9999,2 55924  69.9975 340.9170 0003241 259.9772 100.1058 15.69926876 11362,6737.243,91.724,361.292,356.925,0.0
55924.0,STARLINK-5849,PAYLOAD,2023-05-28 15:50:08,15.69924805,0.0003391,69.9959,338.944,263.5294,96.5515,9.915e-06,9.8e-06,0.0,0 STARLINK-5849,1 55924U 23037L   23148.65981959  .00000980  00000-0  99150-5 0  9996,2 55924  69.9959 338.9440 0003391 263.5294  96.5515 15.69924805 11813,6737.249,91.724,361.399,356.83,0.0
55924.0,STARLINK-5849,PAYLOAD,2023-05-28 20:25:23,15.69928557,0.0003057,69.9978,338.4096,255.7814,104.3042,1.1311e-05,1.148e-05,0.0,0 STARLINK-5849,1 55924U 23037L   23148.85096723  .00001148  00000-0  11311-4 0  9993,2 55924  69.9978 338.4096 0003057 255.7814 104.3042 15.69928557 11503,6737.238,91.724,361.163,357.044,0.0
55924.0,STARLINK-5849,PAYLOAD,2023-05-29 05:35:55,15.69911516,0.0002887,69.9975,337.3337,268.1336,91.9529,-1.0344e-05,-1.455e-05,0.0,0 STARLINK-5849,1 55924U 23037L   23149.23328535 -.00001455  00000-0 -10344-4 0  9993,2 55924  69.9975 337.3337 0002887 268.1336  91.9529 15.69911516 11905,6737.287,91.725,361.097,357.207,0.0
55924.0,STARLINK-5849,PAYLOAD,2023-05-29 14:46:26,15.69918833,0.0003235,69.997,336.2575,272.0756,88.0069,-2.1765e-07,-2.39e-06,0.0,0 STARLINK-5849,1 55924U 23037L   23149.61557923 -.00000239  00000-0 -21765-6 0  9990,2 55924  69.9970 336.2575 0003235 272.0756  88.0069 15.69918833 11624,6737.266,91.724,361.311,356.952,0.0
55924.0,STARLINK-5849,PAYLOAD,2023-05-29 20:53:25,15.69933334,0.0003421,69.997,335.5431,270.7783,89.3021,1.4385e-05,1.518e-05,0.0,0 STARLINK-5849,1 55924U 23037L   23149.87043351  .00001518  00000-0  14385-4 0  9990,2 55924  69.9970 335.5431 0003421 270.7783  89.3021 15.69933334 11668,6737.225,91.724,361.395,356.785,0.0
55924.0,STARLINK-5849,PAYLOAD,2023-05-29 22:25:10,15.69933066,0.0003469,69.9979,335.3637,268.4331,91.6468,1.5633e-05,1.668e-05,0.0,0 STARLINK-5849,1 55924U 23037L   23149.93414977  .00001668  00000-0  15633-4 0  9996,2 55924  69.9979 335.3637 0003469 268.4331  91.6468 15.69933066 12011,6737.225,91.724,361.428,356.753,0.0
55924.0,STARLINK-5849,PAYLOAD,2023-05-30 06:03:56,15.69920767,0.0003305,69.9965,334.4667,268.9982,91.0835,5.9098e-06,4.98e-06,0.0,0 STARLINK-5849,1 55924U 23037L   23150.25274234  .00000498  00000-0  59098-5 0  9997,2 55924  69.9965 334.4667 0003305 268.9982  91.0835 15.69920767 12066,6737.261,91.724,361.352,356.899,0.0
55924.0,STARLINK-5849,PAYLOAD,2023-05-30 15:14:27,15.69928864,0.0003198,69.9971,333.3915,269.1003,90.9827,2.7196e-06,1.14e-06,0.0,0 STARLINK-5849,1 55924U 23037L   23150.63503810  .00000114  00000-0  27196-5 0  9993,2 55924  69.9971 333.3915 0003198 269.1003  90.9827 15.69928864 12126,6737.238,91.724,361.257,356.948,0.0
